ONEWEB-0160             
1 48060U 21025U   24026.75308131  .00000258  00000+0  67179-3 0  9997
2 48060  87.9014 133.8895 0002449 124.3042 235.8319 13.13469629139032
ONEWEB-0163             
1 48061U 21025V   24026.35791524  .00000319  00000+0  83993-3 0  9996
2 48061  87.9012 133.9645 0001460  97.8804 262.2491 13.13469495139101
ONEWEB-0159             
1 48062U 21025W   24026.80387093  .00000082  00000+0  18996-3 0  9997
2 48062  87.9007 133.8612 0001390 103.1508 256.9776 13.13469605139089
ONEWEB-0167             
1 48064U 21025Y   24026.81577546 -.00000812  00000+0 -22593-2 0  9994
2 48064  87.9013 133.8779 0001440 104.7677 255.3611 13.13464499139056
ONEWEB-0166             
1 48065U 21025Z   24026.76101443  .00000089  00000+0  20761-3 0  9998
2 48065  87.9007 133.8774 0001421 109.3312 250.7971 13.13467891139126
ONEWEB-0151             
1 48066U 21025AA  24026.30553871  .00000060  00000+0  12879-3 0  9995
2 48066  87.9010 133.9774 0001870 101.6730 258.4609 13.13468426139004
